start=new Date('2023-05-14T00:00:00.000Z').valueOf();
sats=[{"COUNTRY_CODE":"US","OBJECT_ID":"2022-029R","OBJECT_TYPE":"PAYLOAD","BSTAR":"-0.00000335710000","MEAN_MOTION":"15.08834626","EPOCH":"2023-05-13T21:00:56.850336","DECAY_DATE":null,"CLASSIFICATION_TYPE":"U","TLE_LINE2":"2 52103  53.2170  26.6250 0001218 110.3662 249.7461 15.08834626 65167","LAUNCH_DATE":"2022-03-19","REV_AT_EPOCH":"6516","ELEMENT_SET_NO":"999","MEAN_MOTION_DOT":"-0.00000341","SEMIMAJOR_AXIS":"6917.897","CENTER_NAME":"EARTH","PERIOD":"95.438","RCS_SIZE":"LARGE","FILE":"3907148","ECCENTRICITY":"0.00012180","REF_FRAME":"TEME","MEAN_ANOMALY":"249.7461","MEAN_MOTION_DDOT":"0.0000000000000","SITE":"AFETR","RA_OF_ASC_NODE":"26.6250","NORAD_CAT_ID":"52103","TIME_SYSTEM":"UTC","TLE_LINE1":"1 52103U 22029R   23133.87565799 -.00000341  00000-0 -33571-5 0  9998","OBJECT_NAME":"STARLINK-3705","PERIAPSIS":"538.919","EPHEMERIS_TYPE":"0","ARG_OF_PERICENTER":"110.3662","MEAN_ELEMENT_THEORY":"SGP4","GP_ID":"231779596","INCLINATION":"53.2170","APOAPSIS":"540.604"},{"SEMIMAJOR_AXIS":"6917.885","MEAN_MOTION_DOT":"0.00001020","LAUNCH_DATE":"2022-03-19","REV_AT_EPOCH":"6516","ELEMENT_SET_NO":"999","CLASSIFICATION_TYPE":"U","TLE_LINE2":"2 52105  53.2175  26.6539 0001378  77.4171 282.6975 15.08838436 65168","DECAY_DATE":null,"EPOCH":"2023-05-13T20:51:43.630272","MEAN_MOTION":"15.08838436","OBJECT_TYPE":"PAYLOAD","BSTAR":"0.00008219700000","OBJECT_ID":"2022-029T","COUNTRY_CODE":"US","INCLINATION":"53.2175","GP_ID":"231780355","APOAPSIS":"540.703","MEAN_ELEMENT_THEORY":"SGP4","ARG_OF_PERICENTER":"77.4171","PERIAPSIS":"538.797","EPHEMERIS_TYPE":"0","OBJECT_NAME":"STARLINK-3706","TLE_LINE1":"1 52105U 22029T   23133.86925498  .00001020  00000-0  82197-4 0  9995","TIME_SYSTEM":"UTC","NORAD_CAT_ID":"52105","MEAN_MOTION_DDOT":"0.0000000000000","SITE":"AFETR","RA_OF_ASC_NODE":"26.6539","REF_FRAME":"TEME","MEAN_ANOMALY":"282.6975","RCS_SIZE":"LARGE","FILE":"3907148","ECCENTRICITY":"0.00013780","PERIOD":"95.438","CENTER_NAME":"EARTH"},{"TIME_SYSTEM":"UTC","NORAD_CAT_ID":"52106","OBJECT_NAME":"STARLINK-3670","TLE_LINE1":"1 52106U 22029U   23133.88945778  .00001316  00000-0  10079-3 0  9998","ECCENTRICITY":"0.00010580","FILE":"3907148","RCS_SIZE":"LARGE","CENTER_NAME":"EARTH","PERIOD":"95.438","SITE":"AFETR","RA_OF_ASC_NODE":"36.5592","MEAN_MOTION_DDOT":"0.0000000000000","MEAN_ANOMALY":"262.4194","REF_FRAME":"TEME","MEAN_ELEMENT_THEORY":"SGP4","APOAPSIS":"540.489","GP_ID":"231780591","INCLINATION":"53.2174","EPHEMERIS_TYPE":"0","PERIAPSIS":"539.025","ARG_OF_PERICENTER":"97.6918","EPOCH":"2023-05-13T21:20:49.152192","MEAN_MOTION":"15.08836248","DECAY_DATE":null,"COUNTRY_CODE":"US","OBJECT_TYPE":"PAYLOAD","BSTAR":"0.00010079000000","OBJECT_ID":"2022-029U","LAUNCH_DATE":"2022-03-19","ELEMENT_SET_NO":"999","REV_AT_EPOCH":"6503","SEMIMAJOR_AXIS":"6917.892","MEAN_MOTION_DOT":"0.00001316","TLE_LINE2":"2 52106  53.2174  36.5592 0001058  97.6918 262.4194 15.08836248 65039","CLASSIFICATION_TYPE":"U"},{"ARG_OF_PERICENTER":"72.7740","EPHEMERIS_TYPE":"0","PERIAPSIS":"538.915","INCLINATION":"53.2173","GP_ID":"231779853","APOAPSIS":"540.554","MEAN_ELEMENT_THEORY":"SGP4","MEAN_MOTION_DDOT":"0.0000000000000","SITE":"AFETR","RA_OF_ASC_NODE":"26.6727","REF_FRAME":"TEME","MEAN_ANOMALY":"287.3382","FILE":"3907148","RCS_SIZE":"LARGE","ECCENTRICITY":"0.00011850","CENTER_NAME":"EARTH","PERIOD":"95.437","OBJECT_NAME":"STARLINK-3658","TLE_LINE1":"1 52107U 22029V   23133.86461487  .00003478  00000-0  23646-3 0  9992","TIME_SYSTEM":"UTC","NORAD_CAT_ID":"52107","CLASSIFICATION_TYPE":"U","TLE_LINE2":"2 52107  53.2173  26.6727 0001185  72.7740 287.3382 15.08843620 65168","SEMIMAJOR_AXIS":"6917.869","MEAN_MOTION_DOT":"0.00003478","LAUNCH_DATE":"2022-03-19","REV_AT_EPOCH":"6516","ELEMENT_SET_NO":"999","BSTAR":"0.00023646000000","OBJECT_TYPE":"PAYLOAD","OBJECT_ID":"2022-029V","COUNTRY_CODE":"US","DECAY_DATE":null,"EPOCH":"2023-05-13T20:45:02.724768","MEAN_MOTION":"15.08843620"},{"CLASSIFICATION_TYPE":"U","TLE_LINE2":"2 52108  53.2165  26.6409 0001154  89.2135 270.8990 15.08840912 65167","SEMIMAJOR_AXIS":"6917.878","MEAN_MOTION_DOT":"0.00000816","REV_AT_EPOCH":"6516","LAUNCH_DATE":"2022-03-19","ELEMENT_SET_NO":"999","BSTAR":"0.00006932500000","OBJECT_TYPE":"PAYLOAD","OBJECT_ID":"2022-029W","COUNTRY_CODE":"US","DECAY_DATE":null,"EPOCH":"2023-05-13T20:55:38.430048","MEAN_MOTION":"15.08840912","ARG_OF_PERICENTER":"89.2135","EPHEMERIS_TYPE":"0","PERIAPSIS":"538.944","GP_ID":"231780096","INCLINATION":"53.2165","APOAPSIS":"540.541","MEAN_ELEMENT_THEORY":"SGP4","SITE":"AFETR","MEAN_MOTION_DDOT":"0.0000000000000","RA_OF_ASC_NODE":"26.6409","MEAN_ANOMALY":"270.8990","REF_FRAME":"TEME","FILE":"3907148","RCS_SIZE":"LARGE","ECCENTRICITY":"0.00011540","CENTER_NAME":"EARTH","PERIOD":"95.437","OBJECT_NAME":"STARLINK-3698","TLE_LINE1":"1 52108U 22029W   23133.87197257  .00000816  00000-0  69325-4 0  9993","TIME_SYSTEM":"UTC","NORAD_CAT_ID":"52108"},{"MEAN_MOTION_DOT":"0.00001642","SEMIMAJOR_AXIS":"6917.872","ELEMENT_SET_NO":"999","LAUNCH_DATE":"2022-03-19","REV_AT_EPOCH":"6516","TLE_LINE2":"2 52110  53.2179  26.6583 0001249  78.2444 281.8688 15.08842726 65165","CLASSIFICATION_TYPE":"U","DECAY_DATE":null,"MEAN_MOTION":"15.08842726","EPOCH":"2023-05-13T20:50:20.592960","OBJECT_ID":"2022-029Y","BSTAR":"0.00012120000000","OBJECT_TYPE":"PAYLOAD","COUNTRY_CODE":"US","APOAPSIS":"540.601","GP_ID":"231780856","INCLINATION":"53.2179","MEAN_ELEMENT_THEORY":"SGP4","ARG_OF_PERICENTER":"78.2444","PERIAPSIS":"538.873","EPHEMERIS_TYPE":"0","TLE_LINE1":"1 52110U 22029Y   23133.86829390  .00001642  00000-0  12120-3 0  9993","OBJECT_NAME":"STARLINK-3687","NORAD_CAT_ID":"52110","TIME_SYSTEM":"UTC","REF_FRAME":"TEME","MEAN_ANOMALY":"281.8688","SITE":"AFETR","RA_OF_ASC_NODE":"26.6583","MEAN_MOTION_DDOT":"0.0000000000000","CENTER_NAME":"EARTH","PERIOD":"95.437","ECCENTRICITY":"0.00012490","FILE":"3907148","RCS_SIZE":"LARGE"},{"TIME_SYSTEM":"UTC","NORAD_CAT_ID":"52111","OBJECT_NAME":"STARLINK-3708","TLE_LINE1":"1 52111U 22029Z   23133.85357218  .00001705  00000-0  12516-3 0  9997","ECCENTRICITY":"0.00011270","RCS_SIZE":"LARGE","FILE":"3907148","PERIOD":"95.437","CENTER_NAME":"EARTH","MEAN_MOTION_DDOT":"0.0000000000000","SITE":"AFETR","RA_OF_ASC_NODE":"26.7177","REF_FRAME":"TEME","MEAN_ANOMALY":"280.0644","MEAN_ELEMENT_THEORY":"SGP4","APOAPSIS":"540.512","INCLINATION":"53.2175","GP_ID":"231781092","EPHEMERIS_TYPE":"0","PERIAPSIS":"538.952","ARG_OF_PERICENTER":"80.0475","EPOCH":"2023-05-13T20:29:08.636352","MEAN_MOTION":"15.08844388","DECAY_DATE":null,"COUNTRY_CODE":"US","OBJECT_TYPE":"PAYLOAD","BSTAR":"0.00012516000000","OBJECT_ID":"2022-029Z","REV_AT_EPOCH":"6516","LAUNCH_DATE":"2022-03-19","ELEMENT_SET_NO":"999","SEMIMAJOR_AXIS":"6917.867","MEAN_MOTION_DOT":"0.00001705","TLE_LINE2":"2 52111  53.2175  26.7177 0001127  80.0475 280.0644 15.08844388 65161","CLASSIFICATION_TYPE":"U"},{"RCS_SIZE":"LARGE","FILE":"3907148","ECCENTRICITY":"0.00010880","PERIOD":"95.438","CENTER_NAME":"EARTH","SITE":"AFETR","MEAN_MOTION_DDOT":"0.0000000000000","RA_OF_ASC_NODE":"26.6882","REF_FRAME":"TEME","MEAN_ANOMALY":"270.6020","TIME_SYSTEM":"UTC","NORAD_CAT_ID":"52112","OBJECT_NAME":"STARLINK-3734","TLE_LINE1":"1 52112U 22029AA  23133.86093449  .00002202  00000-0  15641-3 0  9997","EPHEMERIS_TYPE":"0","PERIAPSIS":"538.990","ARG_OF_PERICENTER":"89.5097","MEAN_ELEMENT_THEORY":"SGP4","GP_ID":"231779354","INCLINATION":"53.2175","APOAPSIS":"540.496","COUNTRY_CODE":"US","OBJECT_TYPE":"PAYLOAD","BSTAR":"0.00015641000000","OBJECT_ID":"2022-029AA","EPOCH":"2023-05-13T20:39:44.739936","MEAN_MOTION":"15.08840813","DECAY_DATE":null,"CLASSIFICATION_TYPE":"U","TLE_LINE2":"2 52112  53.2175  26.6882 0001088  89.5097 270.6020 15.08840813 65166","ELEMENT_SET_NO":"999","LAUNCH_DATE":"2022-03-19","REV_AT_EPOCH":"6516","SEMIMAJOR_AXIS":"6917.878","MEAN_MOTION_DOT":"0.00002202"},{"TLE_LINE2":"2 52113  53.2169  26.7547 0000986  96.1730 263.9375 15.08846195 65160","CLASSIFICATION_TYPE":"U","SEMIMAJOR_AXIS":"6917.861","MEAN_MOTION_DOT":"0.00002700","LAUNCH_DATE":"2022-03-19","ELEMENT_SET_NO":"999","REV_AT_EPOCH":"6516","OBJECT_TYPE":"PAYLOAD","BSTAR":"0.00018765000000","OBJECT_ID":"2022-029AB","COUNTRY_CODE":"US","DECAY_DATE":null,"EPOCH":"2023-05-13T20:18:32.789376","MEAN_MOTION":"15.08846195","ARG_OF_PERICENTER":"96.1730","EPHEMERIS_TYPE":"0","PERIAPSIS":"539.044","APOAPSIS":"540.409","INCLINATION":"53.2169","GP_ID":"231779597","MEAN_ELEMENT_THEORY":"SGP4","MEAN_MOTION_DDOT":"0.0000000000000","SITE":"AFETR","RA_OF_ASC_NODE":"26.7547","MEAN_ANOMALY":"263.9375","REF_FRAME":"TEME","ECCENTRICITY":"0.00009860","FILE":"3907148","RCS_SIZE":"LARGE","PERIOD":"95.437","CENTER_NAME":"EARTH","OBJECT_NAME":"STARLINK-3736","TLE_LINE1":"1 52113U 22029AB  23133.84621284  .00002700  00000-0  18765-3 0  9993","TIME_SYSTEM":"UTC","NORAD_CAT_ID":"52113"},{"PERIAPSIS":"539.000","EPHEMERIS_TYPE":"0","ARG_OF_PERICENTER":"87.2669","MEAN_ELEMENT_THEORY":"SGP4","GP_ID":"231780356","INCLINATION":"53.2174","APOAPSIS":"540.494","CENTER_NAME":"EARTH","PERIOD":"95.438","RCS_SIZE":"LARGE","FILE":"3907148","ECCENTRICITY":"0.00010800","MEAN_ANOMALY":"272.8447","REF_FRAME":"TEME","SITE":"AFETR","RA_OF_ASC_NODE":"26.7045","MEAN_MOTION_DDOT":"0.0000000000000","NORAD_CAT_ID":"52114","TIME_SYSTEM":"UTC","TLE_LINE1":"1 52114U 22029AC  23133.85725645  .00001543  00000-0  11498-3 0  9991","OBJECT_NAME":"STARLINK-3737","CLASSIFICATION_TYPE":"U","TLE_LINE2":"2 52114  53.2174  26.7045 0001080  87.2669 272.8447 15.08839381 65166","LAUNCH_DATE":"2022-03-19","REV_AT_EPOCH":"6516","ELEMENT_SET_NO":"999","MEAN_MOTION_DOT":"0.00001543","SEMIMAJOR_AXIS":"6917.882","COUNTRY_CODE":"US","OBJECT_ID":"2022-029AC","OBJECT_TYPE":"PAYLOAD","BSTAR":"0.00011498000000","MEAN_MOTION":"15.08839381","EPOCH":"2023-05-13T20:34:26.957280","DECAY_DATE":null}];
